LEMUR-2-HUBBLE-4        
1 64565U 25135AP  26197.28001286  .00000716  00000+0  73057-4 0  9993
2 64565  97.7720 310.8494 0002753 159.3037 200.8294 14.93687646 58219
LEMUR-2-SEJONG-2        
1 64586U 25135BL  26197.31780843  .00002080  00000+0  18629-3 0  9992
2 64586  97.7709 312.1461 0004041 213.4590 146.6377 14.96916393 58302
LEMUR-2-HUBBLE-5        
1 64840U 25135BT  26197.28846478  .00000509  00000+0  52867-4 0  9995
2 64840  97.7741 311.5280 0004385 230.7774 129.3057 14.94215156 58254
LEMUR-2-KARENDARRELL    
1 64841U 25135BU  26196.79663076  .00004305  00000+0  34587-3 0  9998
2 64841  97.7719 312.9676 0012499 102.9205 257.3415 15.00505264 58304
LEMUR-2-LUCILLE-ROSE    
1 65403U 25135BV  26197.30357854  .00003119  00000+0  25193-3 0  9990
2 65403  97.7711 313.5095 0015031 185.6878 174.4177 15.00495624 53006
LEMUR-2-AFFIE-WAUWIE    
1 66295U 25248C   26196.36935946  .00012792  00000+0  46577-3 0  9990
2 66295  45.3887 322.1687 0008766 251.4181 108.5756 15.28256430 38901
OTTER SDM               
1 66678U 25276N   26197.15060765  .00003546  00000+0  16750-3 0  9999
2 66678  97.4204 270.1502 0004338 249.3545 110.7225 15.20063289 34818
LEMUR-2-STAS-GORBUK     
1 66686U 25276W   26197.23813571  .00002695  00000+0  12957-3 0  9997
2 66686  97.4238 270.2880 0003660 242.8310 117.2552 15.19664199 34820
LEMUR-2-TEODOR          
1 66768U 25276DG  26197.18998944  .00002851  00000+0  13037-3 0  9994
2 66768  97.4143 270.5138 0002197  87.7536 272.3951 15.21342759 34852
LEMUR-2-LAILA           
1 66776U 25276DQ  26197.15964327  .00003001  00000+0  13619-3 0  9992
2 66776  97.4166 270.6230 0002921  92.6922 267.4649 15.21569099 34856
LEMUR-2-CELIJO-SB-PK    
1 66781U 25276DW  26197.18531545  .00002988  00000+0  24295-3 0  9998
2 66781  97.5192 267.0056 0006925  61.9431 298.2493 15.00290087 26978
LEMUR-2-FINNIAN         
1 66782U 25276DX  26197.15537353  .00001457  00000+0  11979-3 0  9994
2 66782  97.5343 267.2469 0007097 355.3535   4.7622 15.00622308 24341
LEMUR-2-STARLIGHT       
1 66783U 25276DY  26197.13678419  .00003695  00000+0  30612-3 0  9993
2 66783  97.5236 266.7857 0014682  44.7641 315.4765 14.99362068 34536
LEMUR-2-TARTIFLETTE     
1 66784U 25276DZ  26197.13519479  .00003383  00000+0  28086-3 0  9990
2 66784  97.5234 266.7927 0013932  52.8232 307.4262 14.99346228 34539
LEMUR-2-VUKASIN         
1 66785U 25276EA  26197.17148193  .00002241  00000+0  18216-3 0  9992
2 66785  97.5222 267.1884 0002892  51.9297 308.2188 15.00551009 34497
LEMUR-2-HOTSPUR-TOM     
1 66786U 25276EB  26197.19640040  .00002767  00000+0  23119-3 0  9994
2 66786  97.5216 266.8257 0013745  44.1727 316.0592 14.99246626 34479
